GLOBALSTAR M024         
1 25883U 99043A   25160.90981132 -.00000061  00000+0  12084-3 0  9993
2 25883  52.0051  37.0419 0002109  79.3691   8.6575 11.10168878114055
GLOBALSTAR M027         
1 25884U 99043B   25160.89296651 -.00000125  00000+0 -23207-2 0  9997
2 25884  52.0192 114.8545 0021815 340.1897  19.8047 11.04372278140431
GLOBALSTAR M054         
1 25885U 99043C   25160.69244065  .00000059  00000+0  33134-2 0  9992
2 25885  52.0127 243.8633 0006264 162.6986 356.3710 11.39221841118199
GLOBALSTAR M053         
1 25886U 99043D   25160.56500957 -.00000036  00000+0  96072-3 0  9991
2 25886  51.9947 190.8383 0002815  69.0545 101.3838 11.27665762118583
GLOBALSTAR M058         
1 25907U 99049A   25160.85335864 -.00000086  00000+0 -17405-4 0  9996
2 25907  51.9919 128.7570 0001902 260.4807  99.5813 11.93200378151879
GLOBALSTAR M050         
1 25908U 99049B   25160.37014557 -.00000061  00000+0  30304-3 0  9991
2 25908  51.9962 138.3073 0009348  15.0406 132.6334 12.07455263147248
GLOBALSTAR M033         
1 25909U 99049C   25160.89629055 -.00000097  00000+0 -55702-4 0  9994
2 25909  51.9936   9.1987 0012840 246.9945 112.9548 12.20292998534857
GLOBALSTAR M055         
1 25910U 99049D   25160.77725815 -.00000072  00000+0  19368-3 0  9993
2 25910  52.0040  20.6428 0007703 112.5274 247.6394 12.29428420167374
